PSYCHE                  
1 58049U 23157A   23286.60289039  .00001209 -37902-5  00000+0 0  9990
2 58049  30.0000  47.5426 0467200 123.5100 359.9800 15.29658471    02
STARLINK-30568          
1 58051U 23158A   23313.58334491 -.01610816  00000+0 -26539-1 0  9997
2 58051  42.9995 341.6491 0001807 284.4474 116.8989 15.54434809  5309
STARLINK-30575          
1 58052U 23158B   23310.43795187 -.00396821  00000+0 -35962-2 0  9999
2 58052  42.9989   0.2935 0011431 303.7135  56.2642 15.68209829  4935
STARLINK-30577          
1 58053U 23158C   23313.58334491 -.01612437  00000+0 -26579-1 0  9994
2 58053  42.9994 341.6431 0001665 283.7861 120.4831 15.54425539  5462
STARLINK-30566          
1 58054U 23158D   23313.58334491 -.01612599  00000+0 -26583-1 0  9999
2 58054  42.9995 341.6412 0001765 282.5285 122.3241 15.54423596  5468
STARLINK-30544          
1 58055U 23158E   23313.58334491 -.01611862  00000+0 -26578-1 0  9996
2 58055  42.9996 341.6342 0001756 284.3729 122.8173 15.54415050  5415
STARLINK-30553          
1 58056U 23158F   23313.58334491 -.01610271  00000+0 -26548-1 0  9997
2 58056  42.9994 341.6352 0001763 283.6284 122.9780 15.54415890  5463
STARLINK-30541          
1 58057U 23158G   23313.58334491 -.01611912  00000+0 -26573-1 0  9999
2 58057  42.9994 341.6400 0001732 284.5567 120.8812 15.54421271  5461
STARLINK-30573          
1 58058U 23158H   23313.58334491 -.01602607  00000+0 -26412-1 0  9993
2 58058  42.9994 341.6377 0001667 290.4626 115.5618 15.54412505  5414
STARLINK-30582          
1 58059U 23158J   23313.75001157 -.01698358  00000+0 -28751-1 0  9999
2 58059  42.9997 340.6513 0001313 265.3654 355.9945 15.53866655  5443
STARLINK-30558          
1 58060U 23158K   23313.58334491 -.01613081  00000+0 -26584-1 0  9994
2 58060  42.9995 341.6482 0001705 282.3488 120.1670 15.54432080  5469
STARLINK-30579          
1 58061U 23158L   23313.44292018  .00534100  12057-3  14676-2 0  9998
2 58061  42.9976 340.6261 0003694  61.3324 290.8928 15.93148814  5414
STARLINK-30588          
1 58062U 23158M   23313.58334491 -.01615444  00000+0 -26655-1 0  9990
2 58062  42.9995 341.6265 0001596 286.4323 124.2640 15.54404871  5471
STARLINK-30585          
1 58063U 23158N   23313.75001157 -.01699053  00000+0 -28770-1 0  9998
2 58063  42.9998 340.6473 0001495 273.4343 350.2568 15.53859480  5447
STARLINK-30587          
1 58064U 23158P   23313.58334491 -.01616791  00000+0 -26675-1 0  9990
2 58064  42.9995 341.6321 0001355 284.1896 124.7544 15.54411709  5318
STARLINK-30576          
1 58065U 23158Q   23313.58334491 -.01612428  00000+0 -26575-1 0  9993
2 58065  42.9995 341.6477 0001650 287.1901 115.9092 15.54429591  5362
STARLINK-30571          
1 58066U 23158R   23313.58334491 -.01617043  00000+0 -26660-1 0  9997
2 58066  42.9994 341.6456 0001513 279.4336 124.2511 15.54430239  5475
STARLINK-30567          
1 58067U 23158S   23313.58334491 -.01612282  00000+0 -26595-1 0  9995
2 58067  42.9993 341.6320 0001583 285.1338 124.3949 15.54407102  5466
STARLINK-30569          
1 58068U 23158T   23313.75001157 -.01698218  00000+0 -28760-1 0  9994
2 58068  42.9996 340.6444 0001426 270.6362 354.2218 15.53854631  5441
STARLINK-30480          
1 58069U 23158U   23313.75001157 -.01654122  00000+0 -28074-1 0  9999
2 58069  42.9996 340.6418 0001272 300.1868 325.4482 15.53714617  5444
STARLINK-30532          
1 58070U 23158V   23313.75001157 -.01498587  00000+0 -25640-1 0  9998
2 58070  42.9996 340.6398 0001354 246.4345  19.6828 15.53699730  5440
STARLINK-30513          
1 58071U 23158W   23313.75001157  .00309424  00000+0  27855-2 0  9998
2 58071  42.9998 340.4701 0002799 236.7971  98.5165 15.66453067  5445
STARLINK-30506          
1 58072U 23158X   23313.75001157 -.01585001  00000+0 -26802-1 0  9999
2 58072  42.9996 340.6361 0001538 287.4410 339.9111 15.53683865  5281
YUNHAI 1-04             
1 58073U 23159A   23313.67667283  .00000566  00000+0  22253-3 0  9993
2 58073  98.5883 336.4292 0000677 158.8675 201.2537 14.33110517  3677
STARLINK-30604          
1 58075U 23160A   23313.58334491 -.01651926  00000+0 -24688-1 0  9996
2 58075  42.9994  35.0389 0001403 282.1794 328.8287 15.57122268  4778
STARLINK-30500          
1 58076U 23160B   23313.58334491 -.01646904  00000+0 -24610-1 0  9992
2 58076  42.9994  35.0382 0001178 280.5619 331.0491 15.57118376  4777
STARLINK-30613          
1 58077U 23160C   23310.98046083 -.00768493  00000+0 -77379-2 0  9999
2 58077  42.9994  50.5106 0003649 347.0237  13.0535 15.66851399  4364
STARLINK-30597          
1 58078U 23160D   23313.58334491 -.01646164  00000+0 -24602-1 0  9993
2 58078  42.9994  35.0352 0001011 279.5494 333.2641 15.57115167  4834
